[{"OBJECT_NAME":"SJ-11-06","OBJECT_ID":"2014-014A","EPOCH":"2026-03-09T23:36:53.923680","MEAN_MOTION":14.61777646,"ECCENTRICITY":0.00126361,"INCLINATION":97.9599,"RA_OF_ASC_NODE":99.4808,"ARG_OF_PERICENTER":301.1982,"MEAN_ANOMALY":58.7981,"EPHEMERIS_TYPE":0,"CLASSIFICATION_TYPE":"U","NORAD_CAT_ID":39624,"ELEMENT_SET_NO":999,"REV_AT_EPOCH":63620,"BSTAR":0.00014245201,"MEAN_MOTION_DOT":6.66e-6,"MEAN_MOTION_DDOT":0},{"OBJECT_NAME":"CZ-4C DEB","OBJECT_ID":"2010-038F","EPOCH":"2026-03-09T16:58:31.008576","MEAN_MOTION":14.75157058,"ECCENTRICITY":0.01220425,"INCLINATION":97.8388,"RA_OF_ASC_NODE":141.0256,"ARG_OF_PERICENTER":182.6031,"MEAN_ANOMALY":177.4559,"EPHEMERIS_TYPE":0,"CLASSIFICATION_TYPE":"U","NORAD_CAT_ID":37570,"ELEMENT_SET_NO":999,"REV_AT_EPOCH":82359,"BSTAR":0.0011084777,"MEAN_MOTION_DOT":8.398e-5,"MEAN_MOTION_DDOT":0}]
